NORAD_CAT_ID,OBJECT_NAME,OBJECT_TYPE,EPOCH,MEAN_MOTION,ECCENTRICITY,INCLINATION,RA_OF_ASC_NODE,ARG_OF_PERICENTER,MEAN_ANOMALY,BSTAR,MEAN_MOTION_DOT,MEAN_MOTION_DDOT,TLE_LINE0,TLE_LINE1,TLE_LINE2,SEMIMAJOR_AXIS,PERIOD,APOGEE,PERIGEE,DECAYED
53850.0,STARLINK-4767,PAYLOAD,2023-04-13 00:54:11,15.08844101,0.0001092,53.2174,19.6813,94.9225,265.1892,-4.089e-05,-9.39e-06,0.0,0 STARLINK-4767,1 53850U 22114AJ  23103.03763196 -.00000939  00000-0 -40890-4 0  9993,2 53850  53.2174  19.6813 0001092  94.9225 265.1892 15.08844101 32703,6917.868,95.437,540.488,538.977,0.0
53850.0,STARLINK-4767,PAYLOAD,2023-04-14 03:55:43,15.08848669,0.0001143,53.2176,14.6251,93.1784,266.9339,0.0001331,1.832e-05,0.0,0 STARLINK-4767,1 53850U 22114AJ  23104.16370324  .00001832  00000-0  13310-3 0  9992,2 53850  53.2176  14.6251 0001143  93.1784 266.9339 15.08848669 32331,6917.854,95.437,540.51,538.928,0.0
53850.0,STARLINK-4767,PAYLOAD,2023-04-15 03:46:31,15.08850135,0.0001147,53.2181,10.1662,80.7352,279.3769,5.9802e-05,6.64e-06,0.0,0 STARLINK-4767,1 53850U 22114AJ  23105.15730471  .00000664  00000-0  59802-4 0  9994,2 53850  53.2181  10.1662 0001147  80.7352 279.3769 15.08850135 33024,6917.849,95.437,540.508,538.921,0.0
53850.0,STARLINK-4767,PAYLOAD,2023-04-15 21:15:46,15.08838694,0.0001091,53.2184,6.8952,74.7832,285.3281,-0.00012463,-2.271e-05,0.0,0 STARLINK-4767,1 53850U 22114AJ  23105.88595956 -.00002271  00000-0 -12463-3 0  9990,2 53850  53.2184   6.8952 0001091  74.7832 285.3281 15.08838694 32598,6917.884,95.438,540.504,538.995,0.0
53850.0,STARLINK-4767,PAYLOAD,2023-04-16 03:37:18,15.08848834,9.84e-05,53.2173,5.7055,87.7429,272.3676,-9.4617e-06,-4.38e-06,0.0,0 STARLINK-4767,1 53850U 22114AJ  23106.15090861 -.00000438  00000-0 -94617-5 0  9992,2 53850  53.2173   5.7055 0000984  87.7429 272.3676 15.08848834 32630,6917.853,95.437,540.399,539.038,0.0
53850.0,STARLINK-4767,PAYLOAD,2023-04-16 17:55:47,15.08834295,0.0001366,53.2178,3.0295,93.013,267.1019,-5.2842e-05,-1.129e-05,0.0,0 STARLINK-4767,1 53850U 22114AJ  23106.74708129 -.00001129  00000-0 -52842-4 0  9991,2 53850  53.2178   3.0295 0001366  93.0130 267.1019 15.08834295 32725,6917.898,95.438,540.708,538.818,0.0
53850.0,STARLINK-4767,PAYLOAD,2023-04-16 21:06:34,15.08834302,9.63e-05,53.2184,2.436,86.0933,274.0169,-1.7713e-05,-5.7e-06,0.0,0 STARLINK-4767,1 53850U 22114AJ  23106.87956123 -.00000570  00000-0 -17713-4 0  9991,2 53850  53.2184   2.4360 0000963  86.0933 274.0169 15.08834302 33287,6917.898,95.438,540.429,539.097,0.0
53850.0,STARLINK-4767,PAYLOAD,2023-04-17 01:52:43,15.08840713,0.0001001,53.2175,1.5429,83.1534,276.9572,1.1518e-05,-1.04e-06,0.0,0 STARLINK-4767,1 53850U 22114AJ  23107.07827611 -.00000104  00000-0  11518-4 0  9992,2 53850  53.2175   1.5429 0001001  83.1534 276.9572 15.08840713 33318,6917.878,95.438,540.436,539.051,0.0
53850.0,STARLINK-4767,PAYLOAD,2023-04-17 17:46:35,15.08833924,9.35e-05,53.2167,358.5693,93.6395,266.4704,1.2089e-05,-9.5e-07,0.0,0 STARLINK-4767,1 53850U 22114AJ  23107.74068462 -.00000095  00000-0  12089-4 0  9990,2 53850  53.2167 358.5693 0000935  93.6395 266.4704 15.08833924 32870,6917.899,95.438,540.411,539.117,0.0
53850.0,STARLINK-4767,PAYLOAD,2023-04-17 20:57:21,15.08837091,8.81e-05,53.2169,357.9749,89.7724,270.3369,2.835e-05,1.63e-06,0.0,0 STARLINK-4767,1 53850U 22114AJ  23107.87316274  .00000163  00000-0  28350-4 0  9994,2 53850  53.2169 357.9749 0000881  89.7724 270.3369 15.08837091 33432,6917.889,95.438,540.364,539.145,0.0
53850.0,STARLINK-4767,PAYLOAD,2023-04-18 01:43:29,15.08848678,8.84e-05,53.2171,357.084,96.3626,263.7467,0.00012928,1.771e-05,0.0,0 STARLINK-4767,1 53850U 22114AJ  23108.07187265  .00001771  00000-0  12928-3 0  9992,2 53850  53.2171 357.0840 0000884  96.3626 263.7467 15.08848678 33467,6917.854,95.437,540.33,539.107,0.0
53850.0,STARLINK-4767,PAYLOAD,2023-04-18 16:01:59,15.08831511,8.24e-05,53.2166,354.4058,92.1716,267.9371,9.5608e-05,1.234e-05,0.0,0 STARLINK-4767,1 53850U 22114AJ  23108.66804577  .00001234  00000-0  95608-4 0  9990,2 53850  53.2166 354.4058 0000824  92.1716 267.9371 15.08831511 33559,6917.906,95.438,540.341,539.201,0.0
53850.0,STARLINK-4767,PAYLOAD,2023-04-18 23:58:53,15.08847416,8.46e-05,53.2173,352.9193,78.049,282.0597,0.00016281,2.305e-05,0.0,0 STARLINK-4767,1 53850U 22114AJ  23108.99923453  .00002305  00000-0  16281-3 0  9990,2 53850  53.2173 352.9193 0000846  78.0490 282.0597 15.08847416 33061,6917.858,95.437,540.308,539.137,0.0
53850.0,STARLINK-4767,PAYLOAD,2023-04-20 01:25:04,15.08845499,9.56e-05,53.2173,348.1614,62.0613,298.0476,8.6388e-05,1.088e-05,0.0,0 STARLINK-4767,1 53850U 22114AJ  23110.05908197  .00001088  00000-0  86388-4 0  9991,2 53850  53.2173 348.1614 0000956  62.0613 298.0476 15.08845499 33767,6917.864,95.437,540.39,539.067,0.0
53850.0,STARLINK-4767,PAYLOAD,2023-04-20 22:05:05,15.08845006,0.0001009,53.2169,344.2945,81.0167,279.0939,1.7712e-05,-6e-08,0.0,0 STARLINK-4767,1 53850U 22114AJ  23110.92020325 -.00000006  00000-0  17712-4 0  9990,2 53850  53.2169 344.2945 0001009  81.0167 279.0939 15.08845006 33892,6917.865,95.437,540.428,539.032,0.0
53850.0,STARLINK-4767,PAYLOAD,2023-04-21 01:15:51,15.08852393,0.0001109,53.2179,343.7007,85.2074,274.9045,6.596e-05,7.62e-06,0.0,0 STARLINK-4767,1 53850U 22114AJ  23111.05267608  .00000762  00000-0  65960-4 0  9998,2 53850  53.2179 343.7007 0001109  85.2074 274.9045 15.08852393 33912,6917.843,95.437,540.475,538.94,0.0
53850.0,STARLINK-4767,PAYLOAD,2023-04-21 21:55:52,15.08852728,0.000125,53.2186,339.839,77.7734,282.3399,3.9584e-05,3.42e-06,0.0,0 STARLINK-4767,1 53850U 22114AJ  23111.91379717  .00000342  00000-0  39584-4 0  9995,2 53850  53.2186 339.8390 0001250  77.7734 282.3399 15.08852728 34049,6917.841,95.437,540.571,538.842,0.0
53850.0,STARLINK-4767,PAYLOAD,2023-04-22 17:00:30,15.08841558,0.0001138,53.2176,336.268,84.3797,275.7325,-4.6473e-05,-1.027e-05,0.0,0 STARLINK-4767,1 53850U 22114AJ  23112.70868566 -.00001027  00000-0 -46473-4 0  9996,2 53850  53.2176 336.2680 0001138  84.3797 275.7325 15.08841558 33626,6917.876,95.437,540.528,538.953,0.0
53850.0,STARLINK-4767,PAYLOAD,2023-04-23 02:32:48,15.0884698,0.000103,53.2165,334.4827,77.8089,282.3019,-9.4958e-06,-4.39e-06,0.0,0 STARLINK-4767,1 53850U 22114AJ  23113.10611976 -.00000439  00000-0 -94958-5 0  9990,2 53850  53.2165 334.4827 0001030  77.8089 282.3019 15.08846980 34224,6917.859,95.437,540.437,539.012,0.0
53850.0,STARLINK-4767,PAYLOAD,2023-04-23 16:51:17,15.0883594,9.67e-05,53.2167,331.805,85.7406,274.3697,-7.2184e-05,-1.436e-05,0.0,0 STARLINK-4767,1 53850U 22114AJ  23113.70228966 -.00001436  00000-0 -72184-4 0  9993,2 53850  53.2167 331.8050 0000967  85.7406 274.3697 15.08835940 34311,6917.893,95.438,540.427,539.089,0.0
53850.0,STARLINK-4767,PAYLOAD,2023-04-24 00:48:12,15.08847598,0.000116,53.2176,330.3206,89.2206,270.8919,3.7944e-05,3.16e-06,0.0,0 STARLINK-4767,1 53850U 22114AJ  23114.03347885  .00000316  00000-0  37944-4 0  9991,2 53850  53.2176 330.3206 0001160  89.2206 270.8919 15.08847598 34366,6917.857,95.437,540.525,538.92,0.0
53850.0,STARLINK-4767,PAYLOAD,2023-04-25 02:14:19,15.08875044,0.0001101,53.2166,325.561,92.2455,267.8664,0.0003076,4.616e-05,0.0,0 STARLINK-4767,1 53850U 22114AJ  23115.09328647  .00004616  00000-0  30760-3 0  9998,2 53850  53.2166 325.5610 0001101  92.2455 267.8664 15.08875044 33982,6917.773,95.435,540.4,538.877,0.0
53850.0,STARLINK-4767,PAYLOAD,2023-04-25 13:22:06,15.08789281,0.0001473,53.2147,323.4785,120.7918,239.322,-0.00067311,-0.0001097,0.0,0 STARLINK-4767,1 53850U 22114AJ  23115.55702308 -.00010970  00000-0 -67311-3 0  9993,2 53850  53.2147 323.4785 0001473 120.7918 239.3220 15.08789281 34591,6918.035,95.441,540.919,538.881,0.0
53850.0,STARLINK-4767,PAYLOAD,2023-04-25 19:43:40,15.08787769,0.0001064,53.2162,322.2922,110.3724,249.7383,-0.00071054,-0.00011562,0.0,0 STARLINK-4767,1 53850U 22114AJ  23115.82199090 -.00011562  00000-0 -71054-3 0  9998,2 53850  53.2162 322.2922 0001064 110.3724 249.7383 15.08787769 34093,6918.04,95.441,540.641,539.169,0.0
53850.0,STARLINK-4767,PAYLOAD,2023-04-26 00:29:50,15.08789671,0.0001336,53.2171,321.3996,102.1483,257.9659,-0.00061979,-0.00010125,0.0,0 STARLINK-4767,1 53850U 22114AJ  23116.02071918 -.00010125  00000-0 -61979-3 0  9998,2 53850  53.2171 321.3996 0001336 102.1483 257.9659 15.08789671 34661,6918.034,95.441,540.823,538.975,0.0
53850.0,STARLINK-4767,PAYLOAD,2023-04-26 19:34:24,15.08864363,7.5e-05,53.2161,317.8302,105.9882,254.1193,2.0293e-05,3.5e-07,0.0,0 STARLINK-4767,1 53850U 22114AJ  23116.81555996  .00000035  00000-0  20293-4 0  9990,2 53850  53.2161 317.8302 0000750 105.9882 254.1193 15.08864363 34781,6917.806,95.436,540.19,539.152,0.0
53850.0,STARLINK-4767,PAYLOAD,2023-04-27 01:55:56,15.08865571,7.94e-05,53.216,316.6404,111.8373,248.2704,4.0282e-05,3.54e-06,0.0,0 STARLINK-4767,1 53850U 22114AJ  23117.08051628  .00000354  00000-0  40282-4 0  9997,2 53850  53.2160 316.6404 0000794 111.8373 248.2704 15.08865571 34828,6917.802,95.436,540.217,539.118,0.0
53850.0,STARLINK-4767,PAYLOAD,2023-04-27 17:49:49,15.08830486,0.0001307,53.2155,313.6641,145.5114,214.5963,0.0005071,7.79e-05,0.0,0 STARLINK-4767,1 53850U 22114AJ  23117.74293250  .00007790  00000-0  50710-3 0  9996,2 53850  53.2155 313.6641 0001307 145.5114 214.5963 15.08830486 34381,6917.909,95.438,540.679,538.87,0.0
53850.0,STARLINK-4767,PAYLOAD,2023-04-28 06:32:54,15.08832531,6.66e-05,53.2169,311.289,135.3888,224.7158,0.0004855,7.446e-05,0.0,0 STARLINK-4767,1 53850U 22114AJ  23118.27285661  .00007446  00000-0  48550-3 0  9999,2 53850  53.2169 311.2890 0000666 135.3888 224.7158 15.08832531 35000,6917.903,95.438,540.229,539.307,0.0
53850.0,STARLINK-4767,PAYLOAD,2023-04-28 19:15:59,15.08856237,8.4e-05,53.216,308.9112,105.4776,254.6309,-7.2831e-05,-1.447e-05,0.0,0 STARLINK-4767,1 53850U 22114AJ  23118.80277182 -.00001447  00000-0 -72831-4 0  9994,2 53850  53.2160 308.9112 0000840 105.4776 254.6309 15.08856237 34546,6917.831,95.437,540.277,539.115,0.0
